norad_id,name,regime,epoch,line1,line2,inclination,eccentricity,mean_motion,raan,arg_pericenter,mean_anomaly
19751,COSMOS 1989 (ETALON 1),NSO,22042.61832698,1 19751U 89001C   22042.61832698 -.00000031  00000-0  00000-0 0    13\,2 19751  64.2735 126.7153 0023616 212.7889 161.3357  2.13156329257554,64.2735,0.0023616,2.13156329,126.7153,212.7889,161.3357
19751,COSMOS 1989 (ETALON 1),NSO,22043.56058354,1 19751U 89001C   22043.56058354 -.00000023  00000-0  00000-0 0    18\,2 19751  64.2736 126.6829 0023616 212.7879 164.3890  2.13156332257574,64.2736,0.0023616,2.13156332,126.6829,212.7879,164.389
19751,COSMOS 1989 (ETALON 1),NSO,22043.66613130,1 19751U 89001C   22043.66613130 -.00000022  00000-0  00000-0 0    17\,2 19751  64.2737 126.6793 0023616 212.7916 245.3787  2.13156333257573,64.2737,0.0023616,2.13156333,126.6793,212.7916,245.3787
19751,COSMOS 1989 (ETALON 1),NSO,22044.47275765,1 19751U 89001C   22044.47275765 -.00000012  00000-0  00000-0 0    14\,2 19751  64.2738 126.6515 0023617 212.7893 144.3557  2.13156333257585,64.2738,0.0023617,2.13156333,126.6515,212.7893,144.3557
19751,COSMOS 1989 (ETALON 1),NSO,22045.43205863,1 19751U 89001C   22045.43205863  .00000000  00000-0  00000-0 0    19\,2 19751  64.2739 126.6185 0023619 212.8016 160.4749  2.13156329257610,64.2739,0.0023619,2.13156329,126.6185,212.8016,160.4749
19751,COSMOS 1989 (ETALON 1),NSO,22045.79073302,1 19751U 89001C   22045.79073302  .00000004  00000-0  00000-0 0    13\,2 19751  64.2740 126.6062 0023619 212.8061  75.7036  2.13156326257610,64.274,0.0023619,2.13156326,126.6062,212.8061,75.7036
19751,COSMOS 1989 (ETALON 1),NSO,22046.52065951,1 19751U 89001C   22046.52065951  .00000013  00000-0  00000-0 0    16\,2 19751  64.2741 126.5811 0023619 212.8213 275.8065  2.13156318257639,64.2741,0.0023619,2.13156318,126.5811,212.8213,275.8065
19751,COSMOS 1989 (ETALON 1),NSO,22047.04631369,1 19751U 89001C   22047.04631369  .00000019  00000-0  00000+0 0  1157\,2 19751  64.2742 126.5630 0023620 212.8256 319.1695  2.13156311257711,64.2742,0.002362,2.13156311,126.563,212.8256,319.1695
19751,COSMOS 1989 (ETALON 1),NSO,22047.26245713,1 19751U 89001C   22047.26245713  .00000021  00000-0  00000-0 0    13\,2 19751  64.2742 126.5555 0023622 212.8305 125.0249  2.13156307257640,64.2742,0.0023622,2.13156307,126.5555,212.8305,125.0249
19751,COSMOS 1989 (ETALON 1),NSO,22047.90866105,1 19751U 89001C   22047.90866105  .00000026  00000-0  00000-0 0    13\,2 19751  64.2743 126.5333 0023621 212.8379 260.8900  2.13156296257666,64.2743,0.0023621,2.13156296,126.5333,212.8379,260.89
19751,COSMOS 1989 (ETALON 1),NSO,22048.15322067,1 19751U 89001C   22048.15322067  .00000028  00000-0  00000+0 0  1163\,2 19751  64.2743 126.5249 0023623 212.8383  88.5555  2.13156292257734,64.2743,0.0023623,2.13156292,126.5249,212.8383,88.5555
19751,COSMOS 1989 (ETALON 1),NSO,22048.32765733,1 19751U 89001C   22048.32765733  .00000029  00000-0  00000-0 0    18\,2 19751  64.2744 126.5189 0023622 212.8422 222.4077  2.13156289257678,64.2744,0.0023622,2.13156289,126.5189,212.8422,222.4077
19751,COSMOS 1989 (ETALON 1),NSO,22048.93044192,1 19751U 89001C   22048.93044192  .00000032  00000-0  00000-0 0    18\,2 19751  64.2744 126.4982 0023622 212.8386 324.9656  2.13156278257687,64.2744,0.0023622,2.13156278,126.4982,212.8386,324.9656
19751,COSMOS 1989 (ETALON 1),NSO,22049.17053602,1 19751U 89001C   22049.17053602  .00000033  00000-0  00000+0 0  1179\,2 19751  64.2745 126.4899 0023624 212.8424 149.2009  2.13156273257753,64.2745,0.0023624,2.13156273,126.4899,212.8424,149.2009
19751,COSMOS 1989 (ETALON 1),NSO,22049.23288286,1 19751U 89001C   22049.23288286  .00000033  00000-0  00000-0 0    17\,2 19751  64.2745 126.4878 0023623 212.8425 197.0434  2.13156272257695,64.2745,0.0023623,2.13156272,126.4878,212.8425,197.0434
19751,COSMOS 1989 (ETALON 1),NSO,22049.90091044,1 19751U 89001C   22049.90091044  .00000034  00000-0  00000-0 0    16\,2 19751  64.2746 126.4648 0023624 212.8329 349.6722  2.13156260257709,64.2746,0.0023624,2.1315626,126.4648,212.8329,349.6722
19751,COSMOS 1989 (ETALON 1),NSO,22050.18726601,1 19751U 89001C   22050.18726601  .00000034  00000-0  00000+0 0  1180\,2 19751  64.2747 126.4549 0023624 212.8363 209.4073  2.13156255257782,64.2747,0.0023624,2.13156255,126.4549,212.8363,209.4073
19751,COSMOS 1989 (ETALON 1),NSO,22050.59882493,1 19751U 89001C   22050.59882493  .00000032  00000-0  00000-0 0    17\,2 19751  64.2747 126.4408 0023626 212.8355 165.2229  2.13156248257727,64.2747,0.0023626,2.13156248,126.4408,212.8355,165.2229
19751,COSMOS 1989 (ETALON 1),NSO,22051.53555734,1 19751U 89001C   22051.53555734  .00000028  00000-0  00000-0 0    12\,2 19751  64.2749 126.4085 0023629 212.8322 164.0392  2.13156233257741,64.2749,0.0023629,2.13156233,126.4085,212.8322,164.0392
19751,COSMOS 1989 (ETALON 1),NSO,22051.86903052,1 19751U 89001C   22051.86903052  .00000025  00000-0  00000-0 0    15\,2 19751  64.2749 126.3971 0023631 212.8301  59.9362  2.13156229257748,64.2749,0.0023631,2.13156229,126.3971,212.8301,59.9362
19751,COSMOS 1989 (ETALON 1),NSO,22052.81575028,1 19751U 89001C   22052.81575028  .00000017  00000-0  00000-0 0    10\,2 19751  64.2751 126.3645 0023635 212.8358  66.4075  2.13156218257769,64.2751,0.0023635,2.13156218,126.3645,212.8358,66.4075
19751,COSMOS 1989 (ETALON 1),NSO,22053.49538948,1 19751U 89001C   22053.49538948  .00000010  00000-0  00000-0 0    18\,2 19751  64.2752 126.3411 0023636 212.8401 227.9327  2.13156211257780,64.2752,0.0023636,2.13156211,126.3411,212.8401,227.9327
19751,COSMOS 1989 (ETALON 1),NSO,22053.82315063,1 19751U 89001C   22053.82315063  .00000007  00000-0  00000-0 0    12\,2 19751  64.2753 126.3298 0023638 212.8472 119.4371  2.13156208257784,64.2753,0.0023638,2.13156208,126.3298,212.8472,119.4371
19751,COSMOS 1989 (ETALON 1),NSO,22054.07954911,1 19751U 89001C   22054.07954911  .00000005  00000-0  00000+0 0  1211\,2 19751  64.2753 126.3210 0023640 212.8477 316.1872  2.13156206257865,64.2753,0.002364,2.13156206,126.321,212.8477,316.1872
19751,COSMOS 1989 (ETALON 1),NSO,22054.40792153,1 19751U 89001C   22054.40792153  .00000002  00000-0  00000-0 0    11\,2 19751  64.2754 126.3097 0023640 212.8538 208.1616  2.13156203257804,64.2754,0.002364,2.13156203,126.3097,212.8538,208.1616
19751,COSMOS 1989 (ETALON 1),NSO,22054.76855242,1 19751U 89001C   22054.76855242  .00000000  00000-0  00000-0 0    17\,2 19751  64.2755 126.2973 0023642 212.8619 124.8881  2.13156202257806,64.2755,0.0023642,2.13156202,126.2973,212.8619,124.8881
19751,COSMOS 1989 (ETALON 1),NSO,22055.41485634,1 19751U 89001C   22055.41485634 -.00000004  00000-0  00000+0 0  1222\,2 19751  64.2756 126.2750 0023644 212.8673 260.8320  2.13156198257894,64.2756,0.0023644,2.13156198,126.275,212.8673,260.832
19751,COSMOS 1989 (ETALON 1),NSO,22055.87635242,1 19751U 89001C   22055.87635242 -.00000005  00000-0  00000-0 0    12\,2 19751  64.2757 126.2591 0023645 212.8740 254.9600  2.13156197257832,64.2757,0.0023645,2.13156197,126.2591,212.874,254.96
19751,COSMOS 1989 (ETALON 1),NSO,22056.23913685,1 19751U 89001C   22056.23913685 -.00000006  00000-0  00000-0 0    14\,2 19751  64.2757 126.2466 0023645 212.8829 173.3381  2.13156198257843,64.2757,0.0023645,2.13156198,126.2466,212.8829,173.3381
19751,COSMOS 1989 (ETALON 1),NSO,22056.70808049,1 19751U 89001C   22056.70808049 -.00000005  00000-0  00000+0 0  1236\,2 19751  64.2758 126.2305 0023646 212.8891 173.1816  2.13156197257925,64.2758,0.0023646,2.13156197,126.2305,212.8891,173.1816
19751,COSMOS 1989 (ETALON 1),NSO,22056.89997508,1 19751U 89001C   22056.89997508 -.00000005  00000-0  00000-0 0    11\,2 19751  64.2759 126.2239 0023649 212.8900 320.4334  2.13156197257850,64.2759,0.0023649,2.13156197,126.2239,212.89,320.4334
19751,COSMOS 1989 (ETALON 1),NSO,22057.21227095,1 19751U 89001C   22057.21227095 -.00000004  00000-0  00000-0 0    14\,2 19751  64.2759 126.2132 0023647 212.8932 200.0743  2.13156199257865,64.2759,0.0023647,2.13156199,126.2132,212.8932,200.0743
19751,COSMOS 1989 (ETALON 1),NSO,22057.83665823,1 19751U 89001C   22057.83665823  .00000000  00000-0  00000-0 0    12\,2 19751  64.2761 126.1917 0023650 212.8996 319.1991  2.13156202257875,64.2761,0.002365,2.13156202,126.1917,212.8996,319.1991
19751,COSMOS 1989 (ETALON 1),NSO,22058.56804289,1 19751U 89001C   22058.56804289  .00000006  00000-0  00000-0 0    10\,2 19751  64.2762 126.1665 0023649 212.9049 160.4308  2.13156209257892,64.2762,0.0023649,2.13156209,126.1665,212.9049,160.4308
19751,COSMOS 1989 (ETALON 1),NSO,22058.95776578,1 19751U 89001C   22058.95776578  .00000009  00000-0  00000+0 0  1251\,2 19751  64.2763 126.1531 0023650 212.9074  99.4869  2.13156213257961,64.2763,0.002365,2.13156213,126.1531,212.9074,99.4869
19751,COSMOS 1989 (ETALON 1),NSO,22059.50529131,1 19751U 89001C   22059.50529131  .00000014  00000-0  00000-0 0    14\,2 19751  64.2764 126.1343 0023650 212.9032 159.6416  2.13156220257917,64.2764,0.002365,2.1315622,126.1343,212.9032,159.6416
19751,COSMOS 1989 (ETALON 1),NSO,22060.35995021,1 19751U 89001C   22060.35995021  .00000021  00000-0  00000-0 0    12\,2 19751  64.2766 126.1049 0023651 212.9030  95.4748  2.13156232257920,64.2766,0.0023651,2.13156232,126.1049,212.903,95.4748
19751,COSMOS 1989 (ETALON 1),NSO,22060.65680472,1 19751U 89001C   22060.65680472  .00000023  00000-0  00000-0 0    18\,2 19751  64.2767 126.0946 0023653 212.9013 323.2714  2.13156237257930,64.2767,0.0023653,2.13156237,126.0946,212.9013,323.2714
19751,COSMOS 1989 (ETALON 1),NSO,22061.38431010,1 19751U 89001C   22061.38431010  .00000027  00000-0  00000-0 0    15\,2 19751  64.2768 126.0696 0023652 212.9014 161.5316  2.13156250257951,64.2768,0.0023652,2.1315625,126.0696,212.9014,161.5316
19751,COSMOS 1989 (ETALON 1),NSO,22061.89142568,1 19751U 89001C   22061.89142568  .00000028  00000-0  00000-0 0    19\,2 19751  64.2769 126.0522 0023653 212.9028 190.6715  2.13156259257962,64.2769,0.0023653,2.13156259,126.0522,212.9028,190.6715
